{"type": "FeatureCollection", "features": [ {"type": "Feature", "properties": {"norad_id": 36173, "name": "FENGYUN 1C DEB", "group": "fengyun-1c-debris", "lat": 15.195110448096347, "lon": -60.981174315844505, "alt_km": 913.5752758203244, "timestamp": "2025-12-09T23:33:24.143201+00:00", "meta": {"OBJECT_NAME": "FENGYUN 1C DEB", "OBJECT_ID": "1999-025DSW", "EPOCH": "2025-11-27T03:07:28.371072", "MEAN_MOTION": 14.25142788, "ECCENTRICITY": 0.01460397, "INCLINATION": 98.2105, "RA_OF_ASC_NODE": 289.2336, "ARG_OF_PERICENTER": 231.4906, "MEAN_ANOMALY": 127.3105, "EPHEMERIS_TYPE": 0, "CLASSIFICATION_TYPE": "U", "NORAD_CAT_ID": 36173, "ELEMENT_SET_NO": 999, "REV_AT_EPOCH": 58868, "BSTAR": 0.00039734703, "MEAN_MOTION_DOT": 1e-05, "MEAN_MOTION_DDOT": 0}, "tle": {"line1": "1 36173U 99025DSW 25331.13018948  .00001000  00000+0  39735-3 0  9993", "line2": "2 36173  98.2105 289.2336 0146039 231.4906 127.3105 14.25142788588684"}}, "geometry": {"type": "Point", "coordinates": [-60.981174315844505, 15.195110448096347]}}, {"type": "Feature", "properties": {"norad_id": 36180, "name": "FENGYUN 1C DEB", "group": "fengyun-1c-debris", "lat": 36.309051246128604, "lon": 41.439710847271655, "alt_km": 668.8219119374135, "timestamp": "2025-12-09T23:33:24.143214+00:00", "meta": {"OBJECT_NAME": "FENGYUN 1C DEB", "OBJECT_ID": "1999-025DTD", "EPOCH": "2025-12-05T21:21:22.276224", "MEAN_MOTION": 14.20680074, "ECCENTRICITY": 0.02106275, "INCLINATION": 98.4572, "RA_OF_ASC_NODE": 43.7979, "ARG_OF_PERICENTER": 50.8055, "MEAN_ANOMALY": 311.1621, "EPHEMERIS_TYPE": 0, "CLASSIFICATION_TYPE": "U", "NORAD_CAT_ID": 36180, "ELEMENT_SET_NO": 999, "REV_AT_EPOCH": 70486, "BSTAR": 0.00091841135, "MEAN_MOTION_DOT": 2.432e-05, "MEAN_MOTION_DDOT": 0}, "tle": {"line1": "1 36180U 99025DTD 25339.88984116  .00002432  00000+0  91841-3 0  9996", "line2": "2 36180  98.4572  43.7979 0210627  50.8055 311.1621 14.20680074704867"}}, "geometry": {"type": "Point", "coordinates": [41.439710847271655, 36.309051246128604]}}, {"type": "Feature", "properties": {"norad_id": 36182, "name": "FENGYUN 1C DEB", "group": "fengyun-1c-debris", "lat": 43.08833692071684, "lon": 100.00351238434149, "alt_km": 763.0929943986766, "timestamp": "2025-12-09T23:33:24.143226+00:00", "meta": {"OBJECT_NAME": "FENGYUN 1C DEB", "OBJECT_ID": "1999-025DTF", "EPOCH": "2025-12-09T12:53:00.896352", "MEAN_MOTION": 14.3467895, "ECCENTRICITY": 0.00216559, "INCLINATION": 99.088, "RA_OF_ASC_NODE": 270.9251, "ARG_OF_PERICENTER": 84.6861, "MEAN_ANOMALY": 275.6792, "EPHEMERIS_TYPE": 0, "CLASSIFICATION_TYPE": "U", "NORAD_CAT_ID": 36182, "ELEMENT_SET_NO": 999, "REV_AT_EPOCH": 87911, "BSTAR": 0.002339666, "MEAN_MOTION_DOT": 6.596e-05, "MEAN_MOTION_DDOT": 0}, "tle": {"line1": "1 36182U 99025DTF 25343.53681593  .00006596  00000+0  23397-2 0  9993", "line2": "2 36182  99.0880 270.9251 0021655  84.6861 275.6792 14.34678950879115"}}, "geometry": {"type": "Point", "coordinates": [100.00351238434149, 43.08833692071684]}}, {"type": "Feature", "properties": {"norad_id": 36186, "name": "FENGYUN 1C DEB", "group": "fengyun-1c-debris", "lat": -38.29848959514707, "lon": -145.99683663009046, "alt_km": 530.7709794188195, "timestamp": "2025-12-09T23:33:24.143237+00:00", "meta": {"OBJECT_NAME": "FENGYUN 1C DEB", "OBJECT_ID": "1999-025DTK", "EPOCH": "2025-12-06T21:01:26.135616", "MEAN_MOTION": 15.09149878, "ECCENTRICITY": 0.00147295, "INCLINATION": 98.9889, "RA_OF_ASC_NODE": 203.1836, "ARG_OF_PERICENTER": 349.9169, "MEAN_ANOMALY": 20.7197, "EPHEMERIS_TYPE": 0, "CLASSIFICATION_TYPE": "U", "NORAD_CAT_ID": 36186, "ELEMENT_SET_NO": 999, "REV_AT_EPOCH": 61482, "BSTAR": 0.015546812, "MEAN_MOTION_DOT": 0.00256087, "MEAN_MOTION_DDOT": 0}, "tle": {"line1": "1 36186U 99025DTK 25340.87599694  .00256087  00000+0  15547-1 0  9990", "line2": "2 36186  98.9889 203.1836 0014729 349.9169  20.7197 15.09149878614823"}}, "geometry": {"type": "Point", "coordinates": [-145.99683663009046, -38.29848959514707]}}, {"type": "Feature", "properties": {"norad_id": 36188, "name": "FENGYUN 1C DEB", "group": "fengyun-1c-debris", "lat": -55.07324435865471, "lon": 96.80102101611672, "alt_km": 665.2857064208638, "timestamp": "2025-12-09T23:33:24.143247+00:00", "meta": {"OBJECT_NAME": "FENGYUN 1C DEB", "OBJECT_ID": "1999-025DTM", "EPOCH": "2025-12-06T00:26:45.096864", "MEAN_MOTION": 14.6043913, "ECCENTRICITY": 0.0047401, "INCLINATION": 98.5867, "RA_OF_ASC_NODE": 80.1988, "ARG_OF_PERICENTER": 325.7511, "MEAN_ANOMALY": 34.0633, "EPHEMERIS_TYPE": 0, "CLASSIFICATION_TYPE": "U", "NORAD_CAT_ID": 36188, "ELEMENT_SET_NO": 999, "REV_AT_EPOCH": 87954, "BSTAR": 0.0036772102, "MEAN_MOTION_DOT": 0.0001809, "MEAN_MOTION_DDOT": 0}, "tle": {"line1": "1 36188U 99025DTM 25340.01857751  .00018090  00000+0  36772-2 0  9993", "line2": "2 36188  98.5867  80.1988 0047401 325.7511  34.0633 14.60439130879548"}}, "geometry": {"type": "Point", "coordinates": [96.80102101611672, -55.07324435865471]}}, {"type": "Feature", "properties": {"norad_id": 36198, "name": "FENGYUN 1C DEB", "group": "fengyun-1c-debris", "lat": -10.15613427941476, "lon": -168.1067499945642, "alt_km": 842.7925051536477, "timestamp": "2025-12-09T23:33:24.143257+00:00", "meta": {"OBJECT_NAME": "FENGYUN 1C DEB", "OBJECT_ID": "1999-025DTX", "EPOCH": "2025-12-06T12:47:36.841920", "MEAN_MOTION": 14.07854185, "ECCENTRICITY": 0.00971183, "INCLINATION": 98.6232, "RA_OF_ASC_NODE": 10.1569, "ARG_OF_PERICENTER": 132.8086, "MEAN_ANOMALY": 228.1301, "EPHEMERIS_TYPE": 0, "CLASSIFICATION_TYPE": "U", "NORAD_CAT_ID": 36198, "ELEMENT_SET_NO": 999, "REV_AT_EPOCH": 63500, "BSTAR": 0.002549244, "MEAN_MOTION_DOT": 4.475e-05, "MEAN_MOTION_DDOT": 0}, "tle": {"line1": "1 36198U 99025DTX 25340.53306530  .00004475  00000+0  25492-2 0  9994", "line2": "2 36198  98.6232  10.1569 0097118 132.8086 228.1301 14.07854185635009"}}, "geometry": {"type": "Point", "coordinates": [-168.1067499945642, -10.15613427941476]}}, {"type": "Feature", "properties": {"norad_id": 36199, "name": "FENGYUN 1C DEB", "group": "fengyun-1c-debris", "lat": -5.157756143973564, "lon": -175.4996163724305, "alt_km": 818.3108841220655, "timestamp": "2025-12-09T23:33:24.143268+00:00", "meta": {"OBJECT_NAME": "FENGYUN 1C DEB", "OBJECT_ID": "1999-025DTY", "EPOCH": "2025-12-08T08:04:11.858304", "MEAN_MOTION": 14.29640942, "ECCENTRICITY": 0.00930252, "INCLINATION": 98.2902, "RA_OF_ASC_NODE": 3.6881, "ARG_OF_PERICENTER": 80.3866, "MEAN_ANOMALY": 280.7813, "EPHEMERIS_TYPE": 0, "CLASSIFICATION_TYPE": "U", "NORAD_CAT_ID": 36199, "ELEMENT_SET_NO": 999, "REV_AT_EPOCH": 64917, "BSTAR": 0.00047025098, "MEAN_MOTION_DOT": 1.222e-05, "MEAN_MOTION_DDOT": 0}, "tle": {"line1": "1 36199U 99025DTY 25342.33624836  .00001222  00000+0  47025-3 0  9991", "line2": "2 36199  98.2902   3.6881 0093025  80.3866 280.7813 14.29640942649173"}}, "geometry": {"type": "Point", "coordinates": [-175.4996163724305, -5.157756143973564]}}, {"type": "Feature", "properties": {"norad_id": 36200, "name": "FENGYUN 1C DEB", "group": "fengyun-1c-debris", "lat": 42.621544185841216, "lon": 48.82708161185033, "alt_km": 673.1334417374801, "timestamp": "2025-12-09T23:33:24.143281+00:00", "meta": {"OBJECT_NAME": "FENGYUN 1C DEB", "OBJECT_ID": "1999-025DTZ", "EPOCH": "2025-12-07T03:51:08.362944", "MEAN_MOTION": 14.58359228, "ECCENTRICITY": 0.00334809, "INCLINATION": 99.3875, "RA_OF_ASC_NODE": 54.4014, "ARG_OF_PERICENTER": 25.778, "MEAN_ANOMALY": 334.5075, "EPHEMERIS_TYPE": 0, "CLASSIFICATION_TYPE": "U", "NORAD_CAT_ID": 36200, "ELEMENT_SET_NO": 999, "REV_AT_EPOCH": 73279, "BSTAR": 0.0062871133, "MEAN_MOTION_DOT": 0.00029404, "MEAN_MOTION_DDOT": 0}, "tle": {"line1": "1 36200U 99025DTZ 25341.16051346  .00029404  00000+0  62871-2 0  9991", "line2": "2 36200  99.3875  54.4014 0033480  25.7780 334.5075 14.58359228732791"}}, "geometry": {"type": "Point", "coordinates": [48.82708161185033, 42.621544185841216]}}, {"type": "Feature", "properties": {"norad_id": 36203, "name": "FENGYUN 1C DEB", "group": "fengyun-1c-debris", "lat": 1.5348346435439268, "lon": 107.64739811507297, "alt_km": 582.9114515024166, "timestamp": "2025-12-09T23:33:24.143291+00:00", "meta": {"OBJECT_NAME": "FENGYUN 1C DEB", "OBJECT_ID": "1999-025DUC", "EPOCH": "2025-12-08T14:16:01.371648", "MEAN_MOTION": 14.78297245, "ECCENTRICITY": 0.0083233, "INCLINATION": 99.0964, "RA_OF_ASC_NODE": 285.836, "ARG_OF_PERICENTER": 161.4127, "MEAN_ANOMALY": 199.0151, "EPHEMERIS_TYPE": 0, "CLASSIFICATION_TYPE": "U", "NORAD_CAT_ID": 36203, "ELEMENT_SET_NO": 999, "REV_AT_EPOCH": 63368, "BSTAR": 0.0016876, "MEAN_MOTION_DOT": 0.00012947, "MEAN_MOTION_DDOT": 0}, "tle": {"line1": "1 36203U 99025DUC 25342.59446032  .00012947  00000+0  16876-2 0  9990", "line2": "2 36203  99.0964 285.8360 0083233 161.4127 199.0151 14.78297245633687"}}, "geometry": {"type": "Point", "coordinates": [107.64739811507297, 1.5348346435439268]}}, {"type": "Feature", "properties": {"norad_id": 36204, "name": "FENGYUN 1C DEB", "group": "fengyun-1c-debris", "lat": 23.833330838499407, "lon": 76.70722312325897, "alt_km": 787.8802138969468, "timestamp": "2025-12-09T23:33:24.143302+00:00", "meta": {"OBJECT_NAME": "FENGYUN 1C DEB", "OBJECT_ID": "1999-025DUD", "EPOCH": "2025-12-09T13:24:01.016640", "MEAN_MOTION": 14.34542102, "ECCENTRICITY": 0.00200402, "INCLINATION": 99.2908, "RA_OF_ASC_NODE": 80.3994, "ARG_OF_PERICENTER": 171.7637, "MEAN_ANOMALY": 188.3878, "EPHEMERIS_TYPE": 0, "CLASSIFICATION_TYPE": "U", "NORAD_CAT_ID": 36204, "ELEMENT_SET_NO": 999, "REV_AT_EPOCH": 94382, "BSTAR": 0.0020121169, "MEAN_MOTION_DOT": 5.645e-05, "MEAN_MOTION_DDOT": 0}, "tle": {"line1": "1 36204U 99025DUD 25343.55834510  .00005645  00000+0  20121-2 0  9995", "line2": "2 36204  99.2908  80.3994 0020040 171.7637 188.3878 14.34542102943820"}}, "geometry": {"type": "Point", "coordinates": [76.70722312325897, 23.833330838499407]}}]}